[{"OBJECT_NAME":"THEA","OBJECT_ID":"2018-099AQ","EPOCH":"2026-03-09T22:33:02.658240","MEAN_MOTION":15.31454284,"ECCENTRICITY":0.00065849,"INCLINATION":97.4542,"RA_OF_ASC_NODE":137.8815,"ARG_OF_PERICENTER":275.4664,"MEAN_ANOMALY":84.5826,"EPHEMERIS_TYPE":0,"CLASSIFICATION_TYPE":"U","NORAD_CAT_ID":43796,"ELEMENT_SET_NO":999,"REV_AT_EPOCH":39748,"BSTAR":0.00074635274,"MEAN_MOTION_DOT":0.00022649,"MEAN_MOTION_DDOT":0},{"OBJECT_NAME":"STARLINK-34884","OBJECT_ID":"2025-247Y","EPOCH":"2026-03-09T14:48:10.643040","MEAN_MOTION":15.30195971,"ECCENTRICITY":9.19e-5,"INCLINATION":53.1585,"RA_OF_ASC_NODE":191.6952,"ARG_OF_PERICENTER":91.0199,"MEAN_ANOMALY":269.0907,"EPHEMERIS_TYPE":0,"CLASSIFICATION_TYPE":"U","NORAD_CAT_ID":66287,"ELEMENT_SET_NO":999,"REV_AT_EPOCH":2102,"BSTAR":0.0010523,"MEAN_MOTION_DOT":0.00030933,"MEAN_MOTION_DDOT":0}]
